<?xml version="1.0" encoding="UTF-8"?>
<cdm xmlns:xsi="http://www.w3.org/2001/XMLSchema-instance" xsi:noNamespaceSchemaLocation="http://sanaregistry.org/r/ndmxml/ndmxml-1.0-master.xsd" id="CCSDS_CDM_VERS" version="1.0">
	<header>
		<CREATION_DATE>2019-08-30T14:53:24.484</CREATION_DATE>
		<ORIGINATOR>COMSPOC</ORIGINATOR>
		<MESSAGE_FOR>HYLAS 1, BREEZE-M R/B</MESSAGE_FOR>
		<MESSAGE_ID>CJ-5507272_20190830145324484</MESSAGE_ID>
	</header>
	<body>
		<relativeMetadataData>
			<COMMENT>SIGMA_DILUTION=1009.5595</COMMENT>
			<COMMENT>ALFANO-MAX-PROBABILITY=4.2588E-008</COMMENT>
			<TCA>2019-09-02T11:27:04.120</TCA>
			<MISS_DISTANCE units="m">24200.8</MISS_DISTANCE>
			<RELATIVE_SPEED units="m/s">1528.0</RELATIVE_SPEED>
			<relativeStateVector>				
				<RELATIVE_POSITION_R units="m">-22004.4</RELATIVE_POSITION_R>
				<RELATIVE_POSITION_T units="m">6461.2</RELATIVE_POSITION_T>
				<RELATIVE_POSITION_N units="m">-7729.2</RELATIVE_POSITION_N>
				<RELATIVE_VELOCITY_R units="m/s">-112.8</RELATIVE_VELOCITY_R>
				<RELATIVE_VELOCITY_T units="m/s">-1311.8</RELATIVE_VELOCITY_T>
				<RELATIVE_VELOCITY_N units="m/s">-775.4</RELATIVE_VELOCITY_N>
			</relativeStateVector>
			<START_SCREEN_PERIOD>2019-08-30T11:00:00.000</START_SCREEN_PERIOD>
			<STOP_SCREEN_PERIOD>2019-09-06T11:00:00.000</STOP_SCREEN_PERIOD>
			<SCREEN_VOLUME_SHAPE>ELLIPSOID</SCREEN_VOLUME_SHAPE>
			<SCREEN_VOLUME_X units="m">50000.0000</SCREEN_VOLUME_X>
			<SCREEN_VOLUME_Y units="m">50000.0000</SCREEN_VOLUME_Y>
			<SCREEN_VOLUME_Z units="m">50000.0000</SCREEN_VOLUME_Z>
			<COLLISION_PROBABILITY>0.000000000E+000</COLLISION_PROBABILITY>
			<COLLISION_PROBABILITY_METHOD>ALFANO-2005</COLLISION_PROBABILITY_METHOD>
		</relativeMetadataData>
		<segment>
			<metadata>
				<OBJECT>OBJECT1</OBJECT>
				<OBJECT_DESIGNATOR>37237</OBJECT_DESIGNATOR>
				<CATALOG_NAME>SATCAT</CATALOG_NAME>
				<OBJECT_NAME>HYLAS 1</OBJECT_NAME>
				<INTERNATIONAL_DESIGNATOR>2010-065A</INTERNATIONAL_DESIGNATOR>
				<EPHEMERIS_NAME>NONE</EPHEMERIS_NAME>
				<COVARIANCE_METHOD>CALCULATED</COVARIANCE_METHOD>
				<MANEUVERABLE>YES</MANEUVERABLE>
				<REF_FRAME>GCRF</REF_FRAME>
			</metadata>
			<data>
				<odParameters />
				<additionalParameters>
					<AREA_PC units="m**2">3.1416</AREA_PC>
				</additionalParameters>
				<stateVector>
					<X units="km">-2.959814931291428E+004</X>
					<Y units="km">3.002104988285293E+004</Y>
					<Z units="km">4.736930840327646E+001</Z>
					<X_DOT units="km/s">-2.189589584229615E+000</X_DOT>
					<Y_DOT units="km/s">-2.159182851126546E+000</Y_DOT>
					<Z_DOT units="km/s">3.759517980142186E-003</Z_DOT>
				</stateVector>
				<covarianceMatrix>
					<CR_R units="m**2">1.502937E+003</CR_R>
					<CT_R units="m**2">-1.269312E+004</CT_R>
					<CT_T units="m**2">2.298189E+005</CT_T>
					<CN_R units="m**2">6.971282E+001</CN_R>
					<CN_T units="m**2">-7.828390E+002</CN_T>
					<CN_N units="m**2">3.594301E+002</CN_N>
					<CRDOT_R units="m**2/s">0.0</CRDOT_R>
					<CRDOT_T units="m**2/s">0.0</CRDOT_T>
					<CRDOT_N units="m**2/s">0.0</CRDOT_N>
					<CRDOT_RDOT units="m**2/s**2">0.0</CRDOT_RDOT>
					<CTDOT_R units="m**2/s">0.0</CTDOT_R>
					<CTDOT_T units="m**2/s">0.0</CTDOT_T>
					<CTDOT_N units="m**2/s">0.0</CTDOT_N>
					<CTDOT_RDOT units="m**2/s**2">0.0</CTDOT_RDOT>
					<CTDOT_TDOT units="m**2/s**2">0.0</CTDOT_TDOT>
					<CNDOT_R units="m**2/s">0.0</CNDOT_R>
					<CNDOT_T units="m**2/s">0.0</CNDOT_T>
					<CNDOT_N units="m**2/s">0.0</CNDOT_N>
					<CNDOT_RDOT units="m**2/s**2">0.0</CNDOT_RDOT>
					<CNDOT_TDOT units="m**2/s**2">0.0</CNDOT_TDOT>
					<CNDOT_NDOT units="m**2/s**2">0.0</CNDOT_NDOT>
				</covarianceMatrix>
			</data>
		</segment>
		<segment>
			<metadata>
				<OBJECT>OBJECT2</OBJECT>
				<OBJECT_DESIGNATOR>35494</OBJECT_DESIGNATOR>
				<CATALOG_NAME>SATCAT</CATALOG_NAME>
				<OBJECT_NAME>BREEZE-M R/B</OBJECT_NAME>
				<INTERNATIONAL_DESIGNATOR>2009-034B</INTERNATIONAL_DESIGNATOR>
				<EPHEMERIS_NAME>NONE</EPHEMERIS_NAME>
				<COVARIANCE_METHOD>CALCULATED</COVARIANCE_METHOD>
				<MANEUVERABLE>NO</MANEUVERABLE>
				<REF_FRAME>GCRF</REF_FRAME>
			</metadata>
			<data>
				<odParameters />
				<additionalParameters>
					<AREA_PC units="m**2">3.1416</AREA_PC>
				</additionalParameters>
				<stateVector>
					<X units="km">-2.958731452478152E+004</X>
					<Y units="km">3.000084379883995E+004</Y>
					<Z units="km">3.962332308198816E+001</Z>
					<X_DOT units="km/s">-1.177485756798828E+000</X_DOT>
					<Y_DOT units="km/s">-1.318576209049650E+000</Y_DOT>
					<Z_DOT units="km/s">-7.733419101259091E-001</Z_DOT>
				</stateVector>
				<covarianceMatrix>
					<CR_R units="m**2">4.920168E+003</CR_R>
					<CT_R units="m**2">-4.833566E+004</CT_R>
					<CT_T units="m**2">5.282649E+005</CT_T>
					<CN_R units="m**2">1.565798E+002</CN_R>
					<CN_T units="m**2">-1.230166E+003</CN_T>
					<CN_N units="m**2">3.658029E+002</CN_N>
					<CRDOT_R units="m**2/s">0.0</CRDOT_R>
					<CRDOT_T units="m**2/s">0.0</CRDOT_T>
					<CRDOT_N units="m**2/s">0.0</CRDOT_N>
					<CRDOT_RDOT units="m**2/s**2">0.0</CRDOT_RDOT>
					<CTDOT_R units="m**2/s">0.0</CTDOT_R>
					<CTDOT_T units="m**2/s">0.0</CTDOT_T>
					<CTDOT_N units="m**2/s">0.0</CTDOT_N>
					<CTDOT_RDOT units="m**2/s**2">0.0</CTDOT_RDOT>
					<CTDOT_TDOT units="m**2/s**2">0.0</CTDOT_TDOT>
					<CNDOT_R units="m**2/s">0.0</CNDOT_R>
					<CNDOT_T units="m**2/s">0.0</CNDOT_T>
					<CNDOT_N units="m**2/s">0.0</CNDOT_N>
					<CNDOT_RDOT units="m**2/s**2">0.0</CNDOT_RDOT>
					<CNDOT_TDOT units="m**2/s**2">0.0</CNDOT_TDOT>
					<CNDOT_NDOT units="m**2/s**2">0.0</CNDOT_NDOT>
				</covarianceMatrix>
			</data>
		</segment>
	</body>
</cdm>